$$SOE
2460728.500000000, A.D. 2025-Feb-22 00:00:00.0000, -3.457422360748612E+08, -9.350952266817493E+06, 3.263428651517085E+07,
2460735.500000000, A.D. 2025-Mar-01 00:00:00.0000, -3.485971529721812E+08, -2.026402716505007E+07, 3.383869338279419E+07,
2460742.500000000, A.D. 2025-Mar-08 00:00:00.0000, -3.510601094161303E+08, -3.115441515752168E+07, 3.500505735914773E+07,
2460749.500000000, A.D. 2025-Mar-15 00:00:00.0000, -3.531394333030640E+08, -4.201085223568650E+07, 3.613317327126002E+07,
2460756.500000000, A.D. 2025-Mar-22 00:00:00.0000, -3.548433942908811E+08, -5.282272329454865E+07, 3.722288690864562E+07,
2460763.500000000, A.D. 2025-Mar-29 00:00:00.0000, -3.561801872509654E+08, -6.358001991511814E+07, 3.827408955922590E+07,
2460770.500000000, A.D. 2025-Apr-05 00:00:00.0000, -3.571579172601719E+08, -7.427329988890091E+07, 3.928671298800413E+07,
2460777.500000000, A.D. 2025-Apr-12 00:00:00.0000, -3.577845876108771E+08, -8.489364829694273E+07, 4.026072499287537E+07,
2460784.500000000, A.D. 2025-Apr-19 00:00:00.0000, -3.580680906443441E+08, -9.543264093400495E+07, 4.119612543743315E+07,
2460791.500000000, A.D. 2025-Apr-26 00:00:00.0000, -3.580162008134498E+08, -1.058823101767095E+08, 4.209294268029670E+07,
2460798.500000000, A.D. 2025-May-03 00:00:00.0000, -3.576365695823519E+08, -1.162351131585583E+08, 4.295123035754182E+07,
2460805.500000000, A.D. 2025-May-10 00:00:00.0000, -3.569367218881063E+08, -1.264839021179100E+08, 4.377106448430237E+07,
2460812.500000000, A.D. 2025-May-17 00:00:00.0000, -3.559240539087433E+08, -1.366218968337086E+08, 4.455254083870286E+07,
2460819.500000000, A.D. 2025-May-24 00:00:00.0000, -3.546058317708190E+08, -1.466426590800257E+08, 4.529577257961384E+07,
2460826.500000000, A.D. 2025-May-31 00:00:00.0000, -3.529891906096230E+08, -1.565400686694868E+08, 4.600088805943705E+07,
2460833.500000000, A.D. 2025-Jun-07 00:00:00.0000, -3.510811342355347E+08, -1.663082997669090E+08, 4.666802894348737E+07,
2460840.500000000, A.D. 2025-Jun-14 00:00:00.0000, -3.488885376433008E+08, -1.759417980323572E+08, 4.729734877686267E+07,
2460847.500000000, A.D. 2025-Jun-21 00:00:00.0000, -3.464181510395004E+08, -1.854352617642946E+08, 4.788901160091586E+07,
2460854.500000000, A.D. 2025-Jun-28 00:00:00.0000, -3.436766021690686E+08, -1.947836251815903E+08, 4.844319046012549E+07,
2460861.500000000, A.D. 2025-Jul-05 00:00:00.0000, -3.406703983773057E+08, -2.039820415942474E+08, 4.896006609953223E+07,
2460868.500000000, A.D. 2025-Jul-12 00:00:00.0000, -3.374059295271739E+08, -2.130258671805617E+08, 4.943982588191810E+07,
2460875.500000000, A.D. 2025-Jul-19 00:00:00.0000, -3.338894715220373E+08, -2.219106458658408E+08, 4.988266284758510E+07,
2460882.500000000, A.D. 2025-Jul-26 00:00:00.0000, -3.301271901745207E+08, -2.306320952851906E+08, 5.028877488189408E+07,
2460889.500000000, A.D. 2025-Aug-02 00:00:00.0000, -3.261251453149587E+08, -2.391860937386358E+08, 5.065836397675555E+07,
2460896.500000000, A.D. 2025-Aug-09 00:00:00.0000, -3.218892950808105E+08, -2.475686680870875E+08, 5.099163557407280E+07,
2460903.500000000, A.D. 2025-Aug-16 00:00:00.0000, -3.174255002800699E+08, -2.557759825907667E+08, 5.128879797106352E+07,
2460910.500000000, A.D. 2025-Aug-23 00:00:00.0000, -3.127395285109088E+08, -2.638043286164661E+08, 5.155006175494973E+07,
2460917.500000000, A.D. 2025-Aug-30 00:00:00.0000, -3.078370576877810E+08, -2.716501144464778E+08, 5.177563928892858E+07,
2460924.500000000, A.D. 2025-Sep-06 00:00:00.0000, -3.027236803745145E+08, -2.793098541394038E+08, 5.196574445551943E+07,
2460931.500000000, A.D. 2025-Sep-13 00:00:00.0000, -2.974049105805747E+08, -2.867801578807631E+08, 5.212059260246395E+07,
2460938.500000000, A.D. 2025-Sep-20 00:00:00.0000, -2.918861897372726E+08, -2.940577254278443E+08, 5.224040025244620E+07,
2460945.500000000, A.D. 2025-Sep-27 00:00:00.0000, -2.861728907891500E+08, -3.011393394995168E+08, 5.232538473050134E+07,
2460952.500000000, A.D. 2025-Oct-04 00:00:00.0000, -2.802703224120020E+08, -3.080218585350639E+08, 5.237576393486542E+07,
2460959.500000000, A.D. 2025-Oct-11 00:00:00.0000, -2.741837337265760E+08, -3.147022097309529E+08, 5.239175620514083E+07,
2460966.500000000, A.D. 2025-Oct-18 00:00:00.0000, -2.679183192211821E+08, -3.211773825996604E+08, 5.237358023629038E+07,
2460973.500000000, A.D. 2025-Oct-25 00:00:00.0000, -2.614792237430081E+08, -3.274444230128120E+08, 5.232145502412210E+07,
2460980.500000000, A.D. 2025-Nov-01 00:00:00.0000, -2.548715475204231E+08, -3.335004276887761E+08, 5.223559983803871E+07,
2460987.500000000, A.D. 2025-Nov-08 00:00:00.0000, -2.481003511850195E+08, -3.393425391333597E+08, 5.211623421373659E+07,
2460994.500000000, A.D. 2025-Nov-15 00:00:00.0000, -2.411706606499588E+08, -3.449679410710697E+08, 5.196357794611010E+07,
2461001.500000000, A.D. 2025-Nov-22 00:00:00.0000, -2.340874714475635E+08, -3.503738541273199E+08, 5.177785106221749E+07,
2461008.500000000, A.D. 2025-Nov-29 00:00:00.0000, -2.268557526860316E+08, -3.555575306078203E+08, 5.155927387999953E+07,
2461015.500000000, A.D. 2025-Dec-06 00:00:00.0000, -2.194804529092644E+08, -3.605162484924783E+08, 5.130806734916610E+07,
2461022.500000000, A.D. 2025-Dec-13 00:00:00.0000, -2.119665074319759E+08, -3.652473079971103E+08, 5.102445335753630E+07,
2461029.500000000, A.D. 2025-Dec-20 00:00:00.0000, -2.043188436631489E+08, -3.697480296662199E+08, 5.070865476501217E+07,
2461036.500000000, A.D. 2025-Dec-27 00:00:00.0000, -1.965423854987184E+08, -3.740157513945791E+08, 5.036089547499949E+07,
2461043.500000000, A.D. 2026-Jan-03 00:00:00.0000, -1.886420582509590E+08, -3.780478249846045E+08, 4.998140062694396E+07,
2461050.500000000, A.D. 2026-Jan-10 00:00:00.0000, -1.806227940152444E+08, -3.818416129118773E+08, 4.957039684514529E+07,
2461057.500000000, A.D. 2026-Jan-17 00:00:00.0000, -1.724895372539034E+08, -3.853944853847122E+08, 4.912811251602453E+07,
2461064.500000000, A.D. 2026-Jan-24 00:00:00.0000, -1.642472505324750E+08, -3.887038176700808E+08, 4.865477808964345E+07,
2461071.500000000, A.D. 2026-Jan-31 00:00:00.0000, -1.559009203987678E+08, -3.917669876890431E+08, 4.815062640392381E+07,
2461078.500000000, A.D. 2026-Feb-07 00:00:00.0000, -1.474555633574967E+08, -3.945813739356259E+08, 4.761589302252446E+07,
2461085.500000000, A.D. 2026-Feb-14 00:00:00.0000, -1.389162317020443E+08, -3.971443537322147E+08, 4.705081656324665E+07,
2461092.500000000, A.D. 2026-Feb-21 00:00:00.0000, -1.302880188309040E+08, -3.994533012437622E+08, 4.645563903003891E+07,
2461099.500000000, A.D. 2026-Feb-28 00:00:00.0000, -1.215760651494351E+08, -4.015055840980599E+08, 4.583060634392513E+07,
2461106.500000000, A.D. 2026-Mar-07 00:00:00.0000, -1.127855666314584E+08, -4.032985605642272E+08, 4.517596910387024E+07,
2461113.500000000, A.D. 2026-Mar-14 00:00:00.0000, -1.039217832814512E+08, -4.048295796276711E+08, 4.449198313432509E+07,
2461120.500000000, A.D. 2026-Mar-21 00:00:00.0000, -9.499004573298725E+07, -4.060959810726395E+08, 4.377890989549141E+07,
2461127.500000000, A.D. 2026-Mar-28 00:00:00.0000, -8.599576201314135E+07, -4.070950945541220E+08, 4.303701702773128E+07,
2461134.500000000, A.D. 2026-Apr-04 00:00:00.0000, -7.694442509779778E+07, -4.078242386362736E+08, 4.226657900973321E+07,
2461141.500000000, A.D. 2026-Apr-11 00:00:00.0000, -6.784162100597441E+07, -4.082807201707139E+08, 4.146787787921104E+07,
2461148.500000000, A.D. 2026-Apr-18 00:00:00.0000, -5.869303729648016E+07, -4.084618340371569E+08, 4.064120400448801E+07,
2461155.500000000, A.D. 2026-Apr-25 00:00:00.0000, -4.950447194415220E+07, -4.083648632506514E+08, 3.978685690783581E+07,
2461162.500000000, A.D. 2026-May-02 00:00:00.0000, -4.028184258912145E+07, -4.079870794880947E+08, 3.890514613982512E+07,
2461169.500000000, A.D. 2026-May-09 00:00:00.0000, -3.103119606038309E+07, -4.073257441272352E+08, 3.799639219296087E+07,
2461176.500000000, A.D. 2026-May-16 00:00:00.0000, -2.175871782334898E+07, -4.063781096904317E+08, 3.706092743678455E+07,
2461183.500000000, A.D. 2026-May-23 00:00:00.0000, -1.247074132872923E+07, -4.051414207050545E+08, 3.609909715908259E+07,
2461190.500000000, A.D. 2026-May-30 00:00:00.0000, -3.173759371710528E+06, -4.036129136986686E+08, 3.511126093596151E+07,
2461197.500000000, A.D. 2026-Jun-06 00:00:00.0000, 6.125562190291204E+06, -4.017898196443149E+08, 3.409779409851843E+07,
2461204.500000000, A.D. 2026-Jun-13 00:00:00.0000, 1.542037199573177E+07, -3.996693687057250E+08, 3.305908898298384E+07,
2461211.500000000, A.D. 2026-Jun-20 00:00:00.0000, 2.470362147840240E+07, -3.972487944124107E+08, 3.199555625712399E+07,
2461218.500000000, A.D. 2026-Jun-27 00:00:00.0000, 3.396805217508533E+07, -3.945253376660401E+08, 3.090762645901217E+07,
2461225.500000000, A.D. 2026-Jul-04 00:00:00.0000, 4.320618200651654E+07, -3.914962514208457E+08, 2.979575169340229E+07,
2461232.500000000, A.D. 2026-Jul-11 00:00:00.0000, 5.241029075152367E+07, -3.881588062459217E+08, 2.866040746089692E+07,
2461239.500000000, A.D. 2026-Jul-18 00:00:00.0000, 6.157240477424137E+07, -3.845102968293129E+08, 2.750209462365405E+07,
2461246.500000000, A.D. 2026-Jul-25 00:00:00.0000, 7.068428099788904E+07, -3.805480495185437E+08, 2.632134151685819E+07,
2461253.500000000, A.D. 2026-Aug-01 00:00:00.0000, 7.973739014399439E+07, -3.762694310572729E+08, 2.511870621027620E+07,
2461260.500000000, A.D. 2026-Aug-08 00:00:00.0000, 8.872289942327835E+07, -3.716718586810638E+08, 2.389477891140632E+07,
2461267.500000000, A.D. 2026-Aug-15 00:00:00.0000, 9.763165506451765E+07, -3.667528112634881E+08, 2.265018452406573E+07,
2461274.500000000, A.D. 2026-Aug-22 00:00:00.0000, 1.064541638931772E+08, -3.615098404454708E+08, 2.138558554738271E+07,
2461281.500000000, A.D. 2026-Aug-29 00:00:00.0000, 1.151805716493222E+08, -3.559405832864664E+08, 2.010168542815766E+07,
2461288.500000000, A.D. 2026-Sep-05 00:00:00.0000, 1.238006401691633E+08, -3.500427794874722E+08, 1.879923195212480E+07,
2461295.500000000, A.D. 2026-Sep-12 00:00:00.0000, 1.323037258912865E+08, -3.438142908979759E+08, 1.747902067038549E+07,
$$EOE